NORAD_CAT_ID,OBJECT_NAME,OBJECT_TYPE,EPOCH,MEAN_MOTION,ECCENTRICITY,INCLINATION,RA_OF_ASC_NODE,ARG_OF_PERICENTER,MEAN_ANOMALY,BSTAR,MEAN_MOTION_DOT,MEAN_MOTION_DDOT,TLE_LINE0,TLE_LINE1,TLE_LINE2,SEMIMAJOR_AXIS,PERIOD,APOGEE,PERIGEE,DECAYED
52375.0,STARLINK-3785,PAYLOAD,2023-02-24 21:32:05,15.08833568,0.0001228,53.2145,126.6845,99.794,260.3191,7.855e-05,9.62e-06,0.0,0 STARLINK-3785,1 52375U 22045AW  23055.89728578  .00000962  00000-0  78550-4 0  9990,2 52375  53.2145 126.6845 0001228  99.7940 260.3191 15.08833568 48536,6917.9,95.438,540.615,538.916,0.0
52375.0,STARLINK-3785,PAYLOAD,2023-02-25 13:25:57,15.08831792,0.0001405,53.2143,123.7103,99.1949,260.9202,0.00034182,5.155e-05,0.0,0 STARLINK-3785,1 52375U 22045AW  23056.55969196  .00005155  00000-0  34182-3 0  9998,2 52375  53.2143 123.7103 0001405  99.1949 260.9202 15.08831792 48636,6917.905,95.438,540.742,538.799,0.0
52375.0,STARLINK-3785,PAYLOAD,2023-02-25 21:22:53,15.08837919,0.0001358,53.2132,122.223,95.9836,264.1311,0.00073698,0.0001146,0.0,0 STARLINK-3785,1 52375U 22045AW  23056.89089367  .00011460  00000-0  73698-3 0  9999,2 52375  53.2132 122.2230 0001358  95.9836 264.1311 15.08837919 48684,6917.887,95.438,540.691,538.812,0.0
52375.0,STARLINK-3785,PAYLOAD,2023-02-26 08:30:34,15.08859549,0.0001312,53.2132,120.1412,95.2314,264.8828,0.0011465,0.00018015,0.0,0 STARLINK-3785,1 52375U 22045AW  23057.35456924  .00018015  00000-0  11465-2 0  9994,2 52375  53.2132 120.1412 0001312  95.2314 264.8828 15.08859549 48758,6917.821,95.436,540.593,538.778,0.0
52375.0,STARLINK-3785,PAYLOAD,2023-02-26 13:16:43,15.08872869,0.0001397,53.214,119.2478,93.596,266.5192,0.0014041,0.00022149,0.0,0 STARLINK-3785,1 52375U 22045AW  23057.55328521  .00022149  00000-0  14041-2 0  9993,2 52375  53.2140 119.2478 0001397  93.5960 266.5192 15.08872869 48785,6917.78,95.435,540.611,538.679,0.0
52375.0,STARLINK-3785,PAYLOAD,2023-02-26 16:27:29,15.08886849,0.0001244,53.214,118.6539,98.4547,261.6586,0.001762,0.00027902,0.0,0 STARLINK-3785,1 52375U 22045AW  23057.68576042  .00027902  00000-0  17620-2 0  9998,2 52375  53.2140 118.6539 0001244  98.4547 261.6586 15.08886849 48801,6917.737,95.435,540.463,538.742,0.0
52375.0,STARLINK-3785,PAYLOAD,2023-02-27 11:32:08,15.08873816,0.0001598,53.2154,115.0845,68.2162,291.9001,0.0046859,0.00075154,0.0,0 STARLINK-3785,1 52375U 22045AW  23058.48065525  .00075154  00000-0  46859-2 0  9994,2 52375  53.2154 115.0845 0001598  68.2162 291.9001 15.08873816 48928,6917.777,95.435,540.747,538.537,0.0
52375.0,STARLINK-3785,PAYLOAD,2023-02-27 21:04:26,15.08860437,0.0001322,53.2146,113.3036,68.0001,292.1131,0.0013336,0.00021012,0.0,0 STARLINK-3785,1 52375U 22045AW  23058.87808974  .00021012  00000-0  13336-2 0  9998,2 52375  53.2146 113.3036 0001322  68.0001 292.1131 15.08860437 48985,6917.818,95.436,540.597,538.768,0.0
52375.0,STARLINK-3785,PAYLOAD,2023-02-28 03:25:59,15.08859383,0.0001362,53.2141,112.1144,71.8916,288.2224,0.0007671,0.00011948,0.0,0 STARLINK-3785,1 52375U 22045AW  23059.14304752  .00011948  00000-0  76710-3 0  9997,2 52375  53.2141 112.1144 0001362  71.8916 288.2224 15.08859383 49021,6917.821,95.436,540.628,538.744,0.0
52375.0,STARLINK-3785,PAYLOAD,2023-02-28 09:47:31,15.08872977,0.0001562,53.2135,110.9268,64.3916,295.7237,0.00086632,0.00013539,0.0,0 STARLINK-3785,1 52375U 22045AW  23059.40800113  .00013539  00000-0  86632-3 0  9990,2 52375  53.2135 110.9268 0001562  64.3916 295.7237 15.08872977 49061,6917.78,95.435,540.725,538.564,0.0
52375.0,STARLINK-3785,PAYLOAD,2023-02-28 14:33:39,15.08890195,0.0001514,53.2141,110.0323,77.9902,282.1259,0.0013298,0.00020968,0.0,0 STARLINK-3785,1 52375U 22045AW  23059.60671268  .00020968  00000-0  13298-2 0  9990,2 52375  53.2141 110.0323 0001514  77.9902 282.1259 15.08890195 49092,6917.727,95.434,540.639,538.545,0.0
52375.0,STARLINK-3785,PAYLOAD,2023-02-28 20:55:13,15.08826122,0.000133,53.2158,108.8391,124.2119,235.8999,-0.0011575,-0.00018655,0.0,0 STARLINK-3785,1 52375U 22045AW  23059.87167981 -.00018655  00000-0 -11575-2 0  9999,2 52375  53.2158 108.8391 0001330 124.2119 235.8999 15.08826122 49132,6917.923,95.438,540.708,538.868,0.0
52375.0,STARLINK-3785,PAYLOAD,2023-03-01 09:38:19,15.08803349,0.0001383,53.2154,106.4624,116.0822,244.0312,-0.00088245,-0.0001429,0.0,0 STARLINK-3785,1 52375U 22045AW  23060.40161784 -.00014290  00000-0 -88245-3 0  9995,2 52375  53.2154 106.4624 0001383 116.0822 244.0312 15.08803349 49215,6917.992,95.44,540.814,538.901,0.0
52375.0,STARLINK-3785,PAYLOAD,2023-03-01 14:24:29,15.08807938,0.000168,53.2154,105.5683,131.0351,229.0786,-0.00052792,-8.673e-05,0.0,0 STARLINK-3785,1 52375U 22045AW  23060.60034403 -.00008673  00000-0 -52792-3 0  9990,2 52375  53.2154 105.5683 0001680 131.0351 229.0786 15.08807938 49243,6917.978,95.44,541.006,538.681,0.0
52375.0,STARLINK-3785,PAYLOAD,2023-03-02 03:07:35,15.08821388,0.0001189,53.2163,103.1915,119.9253,240.1857,-2.2783e-05,-6.5e-06,0.0,0 STARLINK-3785,1 52375U 22045AW  23061.13026889 -.00000650  00000-0 -22783-4 0  9993,2 52375  53.2163 103.1915 0001189 119.9253 240.1857 15.08821388 49322,6917.937,95.439,540.625,538.98,0.0
52375.0,STARLINK-3785,PAYLOAD,2023-03-02 19:01:27,15.08857262,0.0001232,53.215,100.2181,117.3075,242.8042,0.0013841,0.00021819,0.0,0 STARLINK-3785,1 52375U 22045AW  23061.79267365  .00021819  00000-0  13841-2 0  9992,2 52375  53.2150 100.2181 0001232 117.3075 242.8042 15.08857262 49420,6917.828,95.436,540.545,538.84,0.0
52375.0,STARLINK-3785,PAYLOAD,2023-03-03 10:55:16,15.08899896,0.0001162,53.2154,97.2446,106.086,254.026,0.0020434,0.00032436,0.0,0 STARLINK-3785,1 52375U 22045AW  23062.45505664  .00032436  00000-0  20434-2 0  9996,2 52375  53.2154  97.2446 0001162 106.0860 254.0260 15.08899896 49529,6917.697,95.434,540.366,538.758,0.0
52375.0,STARLINK-3785,PAYLOAD,2023-03-03 12:30:39,15.08903964,0.0001145,53.2154,96.9473,103.4895,256.6225,0.0020369,0.00032335,0.0,0 STARLINK-3785,1 52375U 22045AW  23062.52129397  .00032335  00000-0  20369-2 0  9994,2 52375  53.2154  96.9473 0001145 103.4895 256.6225 15.08903964 49537,6917.685,95.434,540.342,538.758,0.0
52375.0,STARLINK-3785,PAYLOAD,2023-03-03 18:52:12,15.08882136,9.05e-05,53.2153,95.7575,89.0977,271.0119,0.00080533,0.00012567,0.0,0 STARLINK-3785,1 52375U 22045AW  23062.78625091  .00012567  00000-0  80533-3 0  9999,2 52375  53.2153  95.7575 0000905  89.0977 271.0119 15.08882136 49573,6917.752,95.435,540.243,538.991,0.0
52375.0,STARLINK-3785,PAYLOAD,2023-03-04 05:59:54,15.08859423,0.000129,53.2153,93.676,88.1319,271.9821,0.0013134,0.00020688,0.0,0 STARLINK-3785,1 52375U 22045AW  23063.24993254  .00020688  00000-0  13134-2 0  9995,2 52375  53.2153  93.6760 0001290  88.1319 271.9821 15.08859423 49644,6917.821,95.436,540.578,538.794,0.0
52375.0,STARLINK-3785,PAYLOAD,2023-03-04 12:21:26,15.0886736,0.0001373,53.2151,92.4868,84.879,275.2358,0.0022359,0.00035503,0.0,0 STARLINK-3785,1 52375U 22045AW  23063.51488988  .00035503  00000-0  22359-2 0  9999,2 52375  53.2151  92.4868 0001373  84.8790 275.2358 15.08867360 49681,6917.797,95.436,540.612,538.712,0.0
52375.0,STARLINK-3785,PAYLOAD,2023-03-05 10:36:50,15.08852018,0.0001148,53.2143,88.323,117.6928,242.4181,0.0020743,0.0003289,0.0,0 STARLINK-3785,1 52375U 22045AW  23064.44225682  .00032890  00000-0  20743-2 0  9993,2 52375  53.2143  88.3230 0001148 117.6928 242.4181 15.08852018 49827,6917.844,95.437,540.503,538.914,0.0
52375.0,STARLINK-3785,PAYLOAD,2023-03-05 18:33:46,15.08850957,0.0001451,53.2144,86.836,94.4515,265.6643,0.0021055,0.0003339,0.0,0 STARLINK-3785,1 52375U 22045AW  23064.77345933  .00033390  00000-0  21055-2 0  9994,2 52375  53.2144  86.8360 0001451  94.4515 265.6643 15.08850957 49871,6917.847,95.437,540.716,538.708,0.0
52375.0,STARLINK-3785,PAYLOAD,2023-03-06 05:41:28,15.08859936,0.0001333,53.2144,84.7543,106.2267,253.8872,0.0019439,0.00030802,0.0,0 STARLINK-3785,1 52375U 22045AW  23065.23713693  .00030802  00000-0  19439-2 0  9996,2 52375  53.2144  84.7543 0001333 106.2267 253.8872 15.08859936 49943,6917.819,95.436,540.607,538.762,0.0
52375.0,STARLINK-3785,PAYLOAD,2023-03-06 18:24:34,15.08835717,0.0001809,53.2149,82.3746,91.2992,268.8207,8.4555e-05,1.058e-05,0.0,0 STARLINK-3785,1 52375U 22045AW  23065.76706114  .00001058  00000-0  84555-4 0  9998,2 52375  53.2149  82.3746 0001809  91.2992 268.8207 15.08835717 50023,6917.893,95.438,541.01,538.507,0.0
52375.0,STARLINK-3785,PAYLOAD,2023-03-07 07:07:39,15.08821499,0.0001338,53.2147,79.9966,92.0446,268.0699,-3.8127e-05,-8.94e-06,0.0,0 STARLINK-3785,1 52375U 22045AW  23066.29698819 -.00000894  00000-0 -38127-4 0  9992,2 52375  53.2147  79.9966 0001338  92.0446 268.0699 15.08821499 50105,6917.937,95.439,540.728,538.876,0.0
52375.0,STARLINK-3785,PAYLOAD,2023-03-07 18:15:22,15.08833415,0.0001393,53.2156,77.9146,91.5592,268.556,0.0010098,0.00015817,0.0,0 STARLINK-3785,1 52375U 22045AW  23066.76067369  .00015817  00000-0  10098-2 0  9998,2 52375  53.2156  77.9146 0001393  91.5592 268.5560 15.08833415 50170,6917.901,95.438,540.729,538.802,0.0
52375.0,STARLINK-3785,PAYLOAD,2023-03-08 03:47:40,15.08855312,0.000115,53.2154,76.131,91.3332,268.7791,0.0014541,0.00022939,0.0,0 STARLINK-3785,1 52375U 22045AW  23067.15811141  .00022939  00000-0  14541-2 0  9997,2 52375  53.2154  76.1310 0001150  91.3332 268.7791 15.08855312 50238,6917.834,95.437,540.494,538.903,0.0
52375.0,STARLINK-3785,PAYLOAD,2023-03-08 11:44:35,15.08881716,0.0001181,53.2151,74.6436,92.8273,267.2854,0.0021939,0.00034841,0.0,0 STARLINK-3785,1 52375U 22045AW  23067.48930483  .00034841  00000-0  21939-2 0  9998,2 52375  53.2151  74.6436 0001181  92.8273 267.2854 15.08881716 50287,6917.753,95.435,540.435,538.801,0.0
52375.0,STARLINK-3785,PAYLOAD,2023-03-09 00:27:41,15.08870662,0.0002376,53.2147,72.2639,83.9192,276.2071,0.0021969,0.00034879,0.0,0 STARLINK-3785,1 52375U 22045AW  23068.01922848  .00034879  00000-0  21969-2 0  9998,2 52375  53.2147  72.2639 0002376  83.9192 276.2071 15.08870662 50367,6917.787,95.436,541.295,538.008,0.0
